ONEWEB-0056             
1 45159U 20008AE  25143.41130734 -.00000489  00000+0 -14367-2 0  9997
2 45159  87.8807 113.9795 0002020  82.0302 278.1054 13.10374288257893
ONEWEB-0057             
1 45160U 20008AF  25143.41877457 -.00000274  00000+0 -82146-3 0  9992
2 45160  87.8813 113.9903 0002070  79.1291 281.0069 13.10374843257797
ONEWEB-0058             
1 45161U 20008AG  25143.40562662 -.00000575  00000+0 -16842-2 0  9994
2 45161  87.8802 114.0071 0001905  86.6393 273.4953 13.10372085258127
ONEWEB-0059             
1 45162U 20008AH  25143.47853195 -.00000635  00000+0 -18564-2 0  9996
2 45162  87.8806 113.9885 0001976  87.8817 272.2537 13.10371881258022
ONEWEB-0062             
1 45163U 20008AJ  25142.43526382  .00000413  00000+0  11466-2 0  9993
2 45163  87.8808 114.1772 0002219  93.7428 266.3953 13.10377565257017
ONEWEB-0065             
1 45164U 20008AK  25143.48351096 -.00000667  00000+0 -19469-2 0  9992
2 45164  87.8811 113.9895 0002035  79.7014 280.4342 13.10374103257582
ONEWEB-0066             
1 45424U 20020A   25142.43093837 -.00000267  00000+0 -78992-3 0  9998
2 45424  87.8825  98.9475 0001673  78.3373 281.7942 13.11414376251461
ONEWEB-0067             
1 45425U 20020B   25142.39207239  .00000322  00000+0  87171-3 0  9996
2 45425  87.8813  98.8743 0001921  77.4669 282.6674 13.11419594251515
